{"type":"FeatureCollection","features":[{"type":"Feature","properties":{"id":"T4","name":"Chowderi Bagh \u2194 Badgam","n_runs":16,"n_drivers":2,"km":2.7,"note":"Observed local connector with no exact permit match \u2014 thin evidence (2-3 drivers), needs field validation. Both endpoint areas are otherwise well-permitted."},"geometry":{"type":"LineString","coordinates":[[74.74202,34.0336],[74.74187,34.03344],[74.74182,34.03338],[74.74178,34.03331],[74.74175,34.03325],[74.74172,34.03322],[74.74147,34.033],[74.74141,34.03294],[74.74134,34.03292],[74.74123,34.03289],[74.74111,34.03286],[74.74111,34.03286],[74.741,34.03281],[74.74089,34.03275],[74.74075,34.03264],[74.7405,34.03244],[74.74048,34.03243],[74.74031,34.03231],[74.73983,34.03202],[74.73953,34.03184],[74.73942,34.03175],[74.73939,34.03173],[74.73933,34.03167],[74.73923,34.03154],[74.7392,34.0315],[74.7391,34.03138],[74.73901,34.03127],[74.73896,34.03122],[74.73892,34.03117],[74.7388,34.03106],[74.73871,34.03099],[74.73869,34.03098],[74.73862,34.03093],[74.73843,34.03081],[74.73833,34.03076],[74.73822,34.0307],[74.73792,34.03057],[74.73792,34.03057],[74.73782,34.03051],[74.73771,34.03045],[74.73768,34.03043],[74.73765,34.03039],[74.73763,34.03033],[74.73759,34.03032],[74.73735,34.03016],[74.73704,34.02996],[74.73661,34.02967],[74.73652,34.02961],[74.73643,34.02953],[74.73635,34.02943],[74.7362,34.02923],[74.73607,34.02906],[74.73603,34.02901],[74.73571,34.02858],[74.7356,34.02839],[74.73555,34.02828],[74.7355,34.02817],[74.73527,34.02777],[74.73517,34.02761],[74.73508,34.02749],[74.73479,34.0271],[74.7347,34.02699],[74.7346,34.02688],[74.73454,34.02681],[74.7342,34.02642],[74.73403,34.02622],[74.73397,34.02615],[74.73395,34.02608],[74.73394,34.02606],[74.73394,34.026],[74.73399,34.0254],[74.734,34.02526],[74.734,34.02518],[74.73398,34.02514],[74.73392,34.02506],[74.73382,34.02499],[74.73367,34.02492],[74.73355,34.02488],[74.73349,34.02487],[74.73349,34.02487],[74.73318,34.02483],[74.73303,34.0248],[74.73273,34.02476],[74.73245,34.0247],[74.73218,34.02464],[74.73206,34.02461],[74.73186,34.02455],[74.73174,34.02452],[74.73165,34.02449],[74.73149,34.02441],[74.73124,34.02427],[74.73115,34.02421],[74.73099,34.02412],[74.73058,34.02398],[74.73057,34.02398],[74.73035,34.02388],[74.7302,34.02382],[74.73012,34.02376],[74.73009,34.02373],[74.73004,34.02366],[74.73002,34.02361],[74.72995,34.02344],[74.72992,34.02336],[74.72988,34.02326],[74.72984,34.0232],[74.7298,34.02315],[74.7297,34.02308],[74.72955,34.02299],[74.72937,34.02291],[74.72918,34.02281],[74.72902,34.02274],[74.72892,34.02265],[74.72885,34.02258],[74.72875,34.02243],[74.72868,34.02231],[74.72864,34.02224],[74.72825,34.02177],[74.72824,34.02177],[74.7277,34.02133],[74.72767,34.02132],[74.72757,34.02127],[74.72743,34.02124],[74.72728,34.02123],[74.72689,34.02125],[74.72681,34.02126],[74.72667,34.02125],[74.72657,34.02124],[74.72645,34.0212],[74.72627,34.02111],[74.72608,34.021],[74.726,34.02094],[74.72579,34.02078],[74.72561,34.02065],[74.72553,34.02057],[74.72548,34.0205],[74.72544,34.02034],[74.72541,34.02022],[74.72541,34.0202],[74.72537,34.02009],[74.72533,34.02002],[74.72504,34.01974],[74.72484,34.01952],[74.72436,34.01899],[74.72394,34.01853],[74.72383,34.01835],[74.7234,34.01763],[74.72304,34.01704],[74.72298,34.01693],[74.72298,34.01693]]}},{"type":"Feature","properties":{"id":"T17","name":"Gulab Bagh \u2194 Hazratbal","n_runs":6,"n_drivers":3,"km":6.4,"note":"Observed local connector with no exact permit match \u2014 thin evidence (2-3 drivers), needs field validation. Both endpoint areas are otherwise well-permitted."},"geometry":{"type":"LineString","coordinates":[[74.82916,34.17716],[74.82903,34.17738],[74.82891,34.17758],[74.82887,34.1777],[74.82888,34.17775],[74.82888,34.17775],[74.8289,34.17779],[74.82897,34.1779],[74.82898,34.17792],[74.82898,34.17795],[74.82898,34.17798],[74.82896,34.17806],[74.82897,34.17815],[74.829,34.17825],[74.82901,34.17827],[74.82904,34.17836],[74.82913,34.1785],[74.8292,34.17858],[74.82925,34.17866],[74.82928,34.17878],[74.8293,34.1789],[74.82932,34.17903],[74.82926,34.17903],[74.82924,34.17903],[74.82905,34.17907],[74.82898,34.17908],[74.82879,34.17915],[74.82872,34.17919],[74.82872,34.17919],[74.82872,34.17919],[74.82879,34.17915],[74.82898,34.17908],[74.82905,34.17907],[74.82924,34.17903],[74.82932,34.17903],[74.82932,34.17903],[74.82928,34.17878],[74.82925,34.17866],[74.82921,34.17859],[74.8292,34.17858],[74.82913,34.1785],[74.82904,34.17836],[74.829,34.17825],[74.82897,34.17815],[74.82896,34.17806],[74.82897,34.17801],[74.82898,34.17798],[74.82898,34.17795],[74.82898,34.17792],[74.82897,34.1779],[74.8289,34.17779],[74.82888,34.17775],[74.82887,34.1777],[74.82868,34.1776],[74.82829,34.17741],[74.82796,34.17719],[74.8278,34.17709],[74.82774,34.17704],[74.8277,34.17699],[74.82768,34.17695],[74.82766,34.17692],[74.82753,34.17665],[74.82749,34.17655],[74.82747,34.1765],[74.82743,34.17641],[74.82724,34.17614],[74.82711,34.176],[74.8271,34.17599],[74.82685,34.17562],[74.82679,34.17554],[74.82671,34.17543],[74.82649,34.17515],[74.82646,34.1751],[74.82631,34.17488],[74.82626,34.17481],[74.82605,34.17453],[74.82593,34.17436],[74.82593,34.17436],[74.82576,34.17412],[74.82563,34.17394],[74.8256,34.17388],[74.82558,34.17383],[74.8255,34.1736],[74.82548,34.17351],[74.82546,34.17336],[74.82543,34.1733],[74.82542,34.17328],[74.82539,34.17323],[74.82511,34.17289],[74.82504,34.1728],[74.82472,34.17238],[74.82465,34.17232],[74.82429,34.17194],[74.82423,34.17187],[74.82422,34.17183],[74.8242,34.17179],[74.82414,34.17154],[74.82404,34.17123],[74.82403,34.17122],[74.82396,34.17102],[74.82383,34.17081],[74.82372,34.17068],[74.82366,34.17062],[74.82355,34.17054],[74.82293,34.17021],[74.822,34.16972],[74.8221,34.16947],[74.82217,34.16932],[74.82231,34.16901],[74.82242,34.16882],[74.82251,34.16869],[74.82254,34.16866],[74.82262,34.16857],[74.82271,34.16848],[74.82279,34.16839],[74.82294,34.16825],[74.82322,34.16803],[74.82336,34.16792],[74.82345,34.16785],[74.8237,34.16771],[74.82423,34.16743],[74.82425,34.16743],[74.82455,34.16729],[74.82493,34.16712],[74.82563,34.16681],[74.82568,34.16679],[74.82644,34.16645],[74.82696,34.16622],[74.82711,34.16616],[74.82752,34.16597],[74.82763,34.16592],[74.8278,34.16582],[74.82785,34.16578],[74.82793,34.16571],[74.82798,34.16566],[74.82803,34.16558],[74.8282,34.16528],[74.82825,34.16519],[74.82839,34.16493],[74.82863,34.16445],[74.82882,34.16405],[74.82891,34.16377],[74.82898,34.16353],[74.82909,34.16322],[74.82919,34.16298],[74.82919,34.16297],[74.82952,34.16236],[74.82955,34.1623],[74.82958,34.16223],[74.82975,34.16188],[74.82986,34.16166],[74.82989,34.16161],[74.83006,34.1613],[74.83025,34.16101],[74.83045,34.16069],[74.83067,34.16038],[74.83074,34.1603],[74.83082,34.1602],[74.83094,34.16008],[74.83117,34.15984],[74.83134,34.15966],[74.83138,34.15963],[74.83153,34.15946],[74.83172,34.15924],[74.83196,34.15896],[74.83217,34.15872],[74.83237,34.15847],[74.83251,34.15829],[74.83261,34.15816],[74.8328,34.15791],[74.83315,34.15749],[74.83345,34.15713],[74.83374,34.1568],[74.8338,34.15672],[74.83385,34.15666],[74.83392,34.15653],[74.83397,34.15637],[74.83405,34.15613],[74.83425,34.15552],[74.83425,34.15551],[74.83431,34.15539],[74.83449,34.1549],[74.83454,34.15477],[74.83457,34.15469],[74.83477,34.15422],[74.83483,34.15406],[74.83508,34.15345],[74.8351,34.15341],[74.83512,34.15337],[74.83523,34.15313],[74.83528,34.15302],[74.83537,34.15283],[74.83544,34.15266],[74.83552,34.15243],[74.83573,34.15195],[74.83576,34.15189],[74.83609,34.15113],[74.83631,34.15062],[74.83639,34.15047],[74.83647,34.1503],[74.83647,34.15018],[74.83648,34.15014],[74.8365,34.15008],[74.83667,34.14982],[74.83667,34.14982],[74.83686,34.14953],[74.83693,34.14941],[74.83699,34.14931],[74.83701,34.14923],[74.83704,34.14914],[74.83705,34.14908],[74.83706,34.14905],[74.83709,34.14874],[74.8371,34.14857],[74.83712,34.14824],[74.83712,34.14823],[74.83715,34.14798],[74.83718,34.14778],[74.83718,34.14775],[74.83721,34.14749],[74.83722,34.14747],[74.83724,34.14718],[74.83727,34.14672],[74.83728,34.14668],[74.83729,34.14652],[74.83731,34.14626],[74.83732,34.14613],[74.83734,34.14582],[74.83736,34.14563],[74.83736,34.14554],[74.83739,34.14527],[74.8374,34.14518],[74.83743,34.14473],[74.83745,34.14449],[74.83746,34.14442],[74.83747,34.14435],[74.83752,34.1442],[74.83755,34.14415],[74.83758,34.14411],[74.83764,34.14403],[74.83783,34.14381],[74.83805,34.14355],[74.83822,34.14337],[74.83826,34.14332],[74.83832,34.14324],[74.83833,34.14324],[74.83844,34.14308],[74.83847,34.14298],[74.83847,34.14288],[74.83848,34.14239],[74.83848,34.14236],[74.8385,34.14214],[74.83849,34.14172],[74.83847,34.14154],[74.83847,34.1415],[74.83847,34.14143],[74.83849,34.14133],[74.83856,34.14118],[74.8387,34.14096],[74.83876,34.14086],[74.83876,34.14086],[74.8388,34.14079],[74.8389,34.14072],[74.83894,34.14067],[74.83923,34.14024],[74.83927,34.14019],[74.83958,34.1397],[74.83962,34.13961],[74.83965,34.13954],[74.83968,34.13946],[74.83974,34.13924],[74.83981,34.13884],[74.83994,34.13808],[74.83997,34.1379],[74.83998,34.13782],[74.83999,34.13757],[74.84001,34.13732],[74.84002,34.13722],[74.84004,34.13704],[74.84009,34.13687],[74.84016,34.13665],[74.84034,34.13621],[74.84054,34.1357],[74.84063,34.13549],[74.84074,34.13524],[74.84079,34.13513],[74.84108,34.13455],[74.84117,34.1343],[74.84121,34.1341],[74.84123,34.13404],[74.84126,34.13376],[74.84126,34.13322],[74.84129,34.13317],[74.84137,34.13301],[74.84161,34.13251],[74.84183,34.13207],[74.84188,34.13199],[74.84162,34.13192],[74.84145,34.13187],[74.84131,34.13184],[74.84124,34.13183],[74.84113,34.13183],[74.84103,34.13183],[74.84103,34.13183],[74.84084,34.13182],[74.84082,34.13182]]}}]}