{"type":"FeatureCollection","features":[{"type":"Feature","properties":{"stop_id":19,"visits":4066,"drivers":45,"dwell_s":60},"geometry":{"type":"Point","coordinates":[74.82846,34.07494]}},{"type":"Feature","properties":{"stop_id":45,"visits":2500,"drivers":29,"dwell_s":85},"geometry":{"type":"Point","coordinates":[74.803,34.1366]}},{"type":"Feature","properties":{"stop_id":38,"visits":1515,"drivers":24,"dwell_s":65},"geometry":{"type":"Point","coordinates":[74.81052,34.09942]}},{"type":"Feature","properties":{"stop_id":17,"visits":1395,"drivers":39,"dwell_s":85},"geometry":{"type":"Point","coordinates":[74.80354,34.06546]}},{"type":"Feature","properties":{"stop_id":25,"visits":1190,"drivers":21,"dwell_s":90},"geometry":{"type":"Point","coordinates":[74.87854,34.03997]}},{"type":"Feature","properties":{"stop_id":18,"visits":945,"drivers":36,"dwell_s":115},"geometry":{"type":"Point","coordinates":[74.80815,34.06544]}},{"type":"Feature","properties":{"stop_id":51,"visits":928,"drivers":18,"dwell_s":50},"geometry":{"type":"Point","coordinates":[74.80926,34.10957]}},{"type":"Feature","properties":{"stop_id":44,"visits":748,"drivers":18,"dwell_s":65},"geometry":{"type":"Point","coordinates":[74.80675,34.12048]}},{"type":"Feature","properties":{"stop_id":9,"visits":738,"drivers":33,"dwell_s":100},"geometry":{"type":"Point","coordinates":[74.80474,34.07152]}},{"type":"Feature","properties":{"stop_id":127,"visits":669,"drivers":3,"dwell_s":110},"geometry":{"type":"Point","coordinates":[74.77044,34.09729]}},{"type":"Feature","properties":{"stop_id":24,"visits":600,"drivers":11,"dwell_s":74},"geometry":{"type":"Point","coordinates":[74.91738,34.02019]}},{"type":"Feature","properties":{"stop_id":56,"visits":407,"drivers":17,"dwell_s":55},"geometry":{"type":"Point","coordinates":[74.81323,34.09244]}},{"type":"Feature","properties":{"stop_id":43,"visits":375,"drivers":20,"dwell_s":70},"geometry":{"type":"Point","coordinates":[74.80852,34.09455]}},{"type":"Feature","properties":{"stop_id":0,"visits":367,"drivers":23,"dwell_s":85},"geometry":{"type":"Point","coordinates":[74.79413,34.07633]}},{"type":"Feature","properties":{"stop_id":16,"visits":365,"drivers":22,"dwell_s":50},"geometry":{"type":"Point","coordinates":[74.8233,34.08506]}},{"type":"Feature","properties":{"stop_id":21,"visits":288,"drivers":13,"dwell_s":121},"geometry":{"type":"Point","coordinates":[74.84134,34.13236]}},{"type":"Feature","properties":{"stop_id":37,"visits":282,"drivers":16,"dwell_s":55},"geometry":{"type":"Point","coordinates":[74.80883,34.10439]}},{"type":"Feature","properties":{"stop_id":67,"visits":273,"drivers":15,"dwell_s":59},"geometry":{"type":"Point","coordinates":[74.77751,34.0912]}},{"type":"Feature","properties":{"stop_id":14,"visits":270,"drivers":13,"dwell_s":91},"geometry":{"type":"Point","coordinates":[74.82237,34.09814]}},{"type":"Feature","properties":{"stop_id":15,"visits":259,"drivers":23,"dwell_s":50},"geometry":{"type":"Point","coordinates":[74.81932,34.09184]}},{"type":"Feature","properties":{"stop_id":50,"visits":255,"drivers":16,"dwell_s":55},"geometry":{"type":"Point","coordinates":[74.80556,34.09947]}},{"type":"Feature","properties":{"stop_id":121,"visits":247,"drivers":12,"dwell_s":79},"geometry":{"type":"Point","coordinates":[74.80909,34.07203]}},{"type":"Feature","properties":{"stop_id":36,"visits":227,"drivers":14,"dwell_s":45},"geometry":{"type":"Point","coordinates":[74.80555,34.12918]}},{"type":"Feature","properties":{"stop_id":83,"visits":221,"drivers":18,"dwell_s":80},"geometry":{"type":"Point","coordinates":[74.79201,34.09575]}},{"type":"Feature","properties":{"stop_id":246,"visits":213,"drivers":18,"dwell_s":110},"geometry":{"type":"Point","coordinates":[74.85973,32.7299]}},{"type":"Feature","properties":{"stop_id":54,"visits":196,"drivers":15,"dwell_s":50},"geometry":{"type":"Point","coordinates":[74.80667,34.11445]}},{"type":"Feature","properties":{"stop_id":78,"visits":194,"drivers":6,"dwell_s":102},"geometry":{"type":"Point","coordinates":[74.82785,34.13566]}},{"type":"Feature","properties":{"stop_id":66,"visits":192,"drivers":5,"dwell_s":135},"geometry":{"type":"Point","coordinates":[74.832,34.13672]}},{"type":"Feature","properties":{"stop_id":223,"visits":185,"drivers":17,"dwell_s":70},"geometry":{"type":"Point","coordinates":[74.85711,32.72679]}},{"type":"Feature","properties":{"stop_id":96,"visits":183,"drivers":10,"dwell_s":97},"geometry":{"type":"Point","coordinates":[74.79612,34.08566]}},{"type":"Feature","properties":{"stop_id":53,"visits":183,"drivers":20,"dwell_s":45},"geometry":{"type":"Point","coordinates":[74.81596,34.09354]}},{"type":"Feature","properties":{"stop_id":28,"visits":172,"drivers":9,"dwell_s":69},"geometry":{"type":"Point","coordinates":[74.91251,34.01235]}},{"type":"Feature","properties":{"stop_id":77,"visits":160,"drivers":20,"dwell_s":65},"geometry":{"type":"Point","coordinates":[74.79755,34.0745]}},{"type":"Feature","properties":{"stop_id":84,"visits":159,"drivers":12,"dwell_s":100},"geometry":{"type":"Point","coordinates":[74.81528,34.15024]}},{"type":"Feature","properties":{"stop_id":11,"visits":152,"drivers":15,"dwell_s":77},"geometry":{"type":"Point","coordinates":[74.83887,34.12754]}},{"type":"Feature","properties":{"stop_id":172,"visits":151,"drivers":11,"dwell_s":110},"geometry":{"type":"Point","coordinates":[74.80237,34.15227]}},{"type":"Feature","properties":{"stop_id":86,"visits":143,"drivers":12,"dwell_s":60},"geometry":{"type":"Point","coordinates":[74.80859,34.1518]}},{"type":"Feature","properties":{"stop_id":224,"visits":143,"drivers":20,"dwell_s":120},"geometry":{"type":"Point","coordinates":[75.13611,32.92434]}},{"type":"Feature","properties":{"stop_id":226,"visits":139,"drivers":24,"dwell_s":120},"geometry":{"type":"Point","coordinates":[75.13687,32.92736]}},{"type":"Feature","properties":{"stop_id":187,"visits":137,"drivers":7,"dwell_s":120},"geometry":{"type":"Point","coordinates":[74.82589,34.1459]}},{"type":"Feature","properties":{"stop_id":47,"visits":131,"drivers":12,"dwell_s":55},"geometry":{"type":"Point","coordinates":[74.80245,34.09897]}},{"type":"Feature","properties":{"stop_id":238,"visits":122,"drivers":19,"dwell_s":65},"geometry":{"type":"Point","coordinates":[74.85849,32.7329]}},{"type":"Feature","properties":{"stop_id":13,"visits":115,"drivers":13,"dwell_s":65},"geometry":{"type":"Point","coordinates":[74.82215,34.10223]}},{"type":"Feature","properties":{"stop_id":42,"visits":114,"drivers":15,"dwell_s":55},"geometry":{"type":"Point","coordinates":[74.83533,34.07391]}},{"type":"Feature","properties":{"stop_id":263,"visits":109,"drivers":19,"dwell_s":65},"geometry":{"type":"Point","coordinates":[75.14395,32.93315]}},{"type":"Feature","properties":{"stop_id":39,"visits":107,"drivers":14,"dwell_s":51},"geometry":{"type":"Point","coordinates":[74.86594,34.04885]}},{"type":"Feature","properties":{"stop_id":30,"visits":102,"drivers":11,"dwell_s":45},"geometry":{"type":"Point","coordinates":[74.86062,34.05497]}},{"type":"Feature","properties":{"stop_id":26,"visits":102,"drivers":21,"dwell_s":50},"geometry":{"type":"Point","coordinates":[74.81085,34.06686]}},{"type":"Feature","properties":{"stop_id":32,"visits":101,"drivers":14,"dwell_s":50},"geometry":{"type":"Point","coordinates":[74.8397,34.07103]}},{"type":"Feature","properties":{"stop_id":175,"visits":100,"drivers":8,"dwell_s":60},"geometry":{"type":"Point","coordinates":[74.81307,34.07784]}},{"type":"Feature","properties":{"stop_id":277,"visits":96,"drivers":3,"dwell_s":118},"geometry":{"type":"Point","coordinates":[74.8564,32.71462]}},{"type":"Feature","properties":{"stop_id":68,"visits":92,"drivers":12,"dwell_s":83},"geometry":{"type":"Point","coordinates":[74.76766,34.1006]}},{"type":"Feature","properties":{"stop_id":122,"visits":91,"drivers":9,"dwell_s":55},"geometry":{"type":"Point","coordinates":[74.81001,34.07375]}},{"type":"Feature","properties":{"stop_id":80,"visits":89,"drivers":4,"dwell_s":70},"geometry":{"type":"Point","coordinates":[74.84192,34.12993]}},{"type":"Feature","properties":{"stop_id":135,"visits":89,"drivers":4,"dwell_s":91},"geometry":{"type":"Point","coordinates":[74.79888,34.12532]}},{"type":"Feature","properties":{"stop_id":236,"visits":89,"drivers":21,"dwell_s":70},"geometry":{"type":"Point","coordinates":[74.94038,32.83922]}},{"type":"Feature","properties":{"stop_id":73,"visits":86,"drivers":8,"dwell_s":133},"geometry":{"type":"Point","coordinates":[74.76446,34.10276]}},{"type":"Feature","properties":{"stop_id":41,"visits":80,"drivers":7,"dwell_s":167},"geometry":{"type":"Point","coordinates":[74.84711,34.0261]}},{"type":"Feature","properties":{"stop_id":55,"visits":80,"drivers":14,"dwell_s":45},"geometry":{"type":"Point","coordinates":[74.85136,34.06162]}},{"type":"Feature","properties":{"stop_id":2,"visits":79,"drivers":15,"dwell_s":60},"geometry":{"type":"Point","coordinates":[74.7942,34.08046]}},{"type":"Feature","properties":{"stop_id":22,"visits":77,"drivers":8,"dwell_s":77},"geometry":{"type":"Point","coordinates":[74.82082,34.09495]}},{"type":"Feature","properties":{"stop_id":284,"visits":76,"drivers":4,"dwell_s":235},"geometry":{"type":"Point","coordinates":[75.13784,33.07809]}},{"type":"Feature","properties":{"stop_id":181,"visits":75,"drivers":7,"dwell_s":50},"geometry":{"type":"Point","coordinates":[74.81991,34.07988]}},{"type":"Feature","properties":{"stop_id":268,"visits":75,"drivers":7,"dwell_s":94},"geometry":{"type":"Point","coordinates":[74.8602,32.73145]}},{"type":"Feature","properties":{"stop_id":49,"visits":74,"drivers":12,"dwell_s":50},"geometry":{"type":"Point","coordinates":[74.8475,34.06486]}},{"type":"Feature","properties":{"stop_id":243,"visits":74,"drivers":23,"dwell_s":85},"geometry":{"type":"Point","coordinates":[75.15147,32.93704]}},{"type":"Feature","properties":{"stop_id":65,"visits":69,"drivers":6,"dwell_s":55},"geometry":{"type":"Point","coordinates":[74.84501,34.03192]}},{"type":"Feature","properties":{"stop_id":190,"visits":65,"drivers":3,"dwell_s":50},"geometry":{"type":"Point","coordinates":[74.84995,34.03314]}},{"type":"Feature","properties":{"stop_id":85,"visits":64,"drivers":10,"dwell_s":45},"geometry":{"type":"Point","coordinates":[74.81948,34.08327]}},{"type":"Feature","properties":{"stop_id":33,"visits":64,"drivers":6,"dwell_s":380},"geometry":{"type":"Point","coordinates":[74.91617,34.00012]}},{"type":"Feature","properties":{"stop_id":230,"visits":64,"drivers":15,"dwell_s":60},"geometry":{"type":"Point","coordinates":[75.29491,33.13108]}},{"type":"Feature","properties":{"stop_id":134,"visits":57,"drivers":4,"dwell_s":70},"geometry":{"type":"Point","coordinates":[74.80839,34.12835]}},{"type":"Feature","properties":{"stop_id":174,"visits":57,"drivers":7,"dwell_s":190},"geometry":{"type":"Point","coordinates":[74.81942,34.08528]}},{"type":"Feature","properties":{"stop_id":261,"visits":57,"drivers":3,"dwell_s":74},"geometry":{"type":"Point","coordinates":[75.02064,32.56658]}},{"type":"Feature","properties":{"stop_id":125,"visits":54,"drivers":8,"dwell_s":184},"geometry":{"type":"Point","coordinates":[74.87827,34.03907]}},{"type":"Feature","properties":{"stop_id":59,"visits":53,"drivers":11,"dwell_s":50},"geometry":{"type":"Point","coordinates":[74.82134,34.0896]}},{"type":"Feature","properties":{"stop_id":286,"visits":53,"drivers":6,"dwell_s":95},"geometry":{"type":"Point","coordinates":[75.14127,33.0434]}},{"type":"Feature","properties":{"stop_id":7,"visits":53,"drivers":4,"dwell_s":131},"geometry":{"type":"Point","coordinates":[74.7288,34.02223]}},{"type":"Feature","properties":{"stop_id":118,"visits":52,"drivers":4,"dwell_s":65},"geometry":{"type":"Point","coordinates":[74.7379,34.03032]}},{"type":"Feature","properties":{"stop_id":333,"visits":51,"drivers":3,"dwell_s":96},"geometry":{"type":"Point","coordinates":[75.16025,33.12584]}},{"type":"Feature","properties":{"stop_id":182,"visits":51,"drivers":6,"dwell_s":341},"geometry":{"type":"Point","coordinates":[74.80795,34.12044]}},{"type":"Feature","properties":{"stop_id":89,"visits":51,"drivers":13,"dwell_s":115},"geometry":{"type":"Point","coordinates":[74.8027,34.13416]}},{"type":"Feature","properties":{"stop_id":253,"visits":50,"drivers":5,"dwell_s":65},"geometry":{"type":"Point","coordinates":[74.85945,32.71765]}},{"type":"Feature","properties":{"stop_id":23,"visits":49,"drivers":8,"dwell_s":90},"geometry":{"type":"Point","coordinates":[74.79026,34.03777]}},{"type":"Feature","properties":{"stop_id":239,"visits":48,"drivers":17,"dwell_s":65},"geometry":{"type":"Point","coordinates":[74.8577,32.73648]}},{"type":"Feature","properties":{"stop_id":225,"visits":47,"drivers":14,"dwell_s":65},"geometry":{"type":"Point","coordinates":[75.13543,32.92516]}},{"type":"Feature","properties":{"stop_id":40,"visits":47,"drivers":10,"dwell_s":70},"geometry":{"type":"Point","coordinates":[74.84729,34.02515]}},{"type":"Feature","properties":{"stop_id":204,"visits":46,"drivers":6,"dwell_s":107},"geometry":{"type":"Point","coordinates":[74.81731,34.16103]}},{"type":"Feature","properties":{"stop_id":234,"visits":46,"drivers":15,"dwell_s":70},"geometry":{"type":"Point","coordinates":[75.14038,32.93101]}},{"type":"Feature","properties":{"stop_id":265,"visits":45,"drivers":3,"dwell_s":85},"geometry":{"type":"Point","coordinates":[75.3073,32.47709]}},{"type":"Feature","properties":{"stop_id":1,"visits":45,"drivers":11,"dwell_s":57},"geometry":{"type":"Point","coordinates":[74.79447,34.07869]}},{"type":"Feature","properties":{"stop_id":180,"visits":45,"drivers":7,"dwell_s":50},"geometry":{"type":"Point","coordinates":[74.80634,34.11744]}},{"type":"Feature","properties":{"stop_id":258,"visits":45,"drivers":4,"dwell_s":70},"geometry":{"type":"Point","coordinates":[75.51442,32.39655]}},{"type":"Feature","properties":{"stop_id":148,"visits":44,"drivers":3,"dwell_s":105},"geometry":{"type":"Point","coordinates":[74.9681,33.99907]}},{"type":"Feature","properties":{"stop_id":173,"visits":43,"drivers":8,"dwell_s":60},"geometry":{"type":"Point","coordinates":[74.80845,34.13676]}},{"type":"Feature","properties":{"stop_id":143,"visits":43,"drivers":8,"dwell_s":55},"geometry":{"type":"Point","coordinates":[74.8309,34.07321]}},{"type":"Feature","properties":{"stop_id":61,"visits":43,"drivers":8,"dwell_s":60},"geometry":{"type":"Point","coordinates":[74.80633,34.12537]}},{"type":"Feature","properties":{"stop_id":324,"visits":43,"drivers":3,"dwell_s":179},"geometry":{"type":"Point","coordinates":[75.3145,32.80632]}},{"type":"Feature","properties":{"stop_id":241,"visits":41,"drivers":12,"dwell_s":120},"geometry":{"type":"Point","coordinates":[74.95597,32.8955]}},{"type":"Feature","properties":{"stop_id":331,"visits":40,"drivers":3,"dwell_s":165},"geometry":{"type":"Point","coordinates":[75.18909,33.11761]}},{"type":"Feature","properties":{"stop_id":240,"visits":39,"drivers":15,"dwell_s":60},"geometry":{"type":"Point","coordinates":[74.86307,32.74666]}},{"type":"Feature","properties":{"stop_id":124,"visits":39,"drivers":7,"dwell_s":60},"geometry":{"type":"Point","coordinates":[74.81657,34.07356]}},{"type":"Feature","properties":{"stop_id":228,"visits":36,"drivers":13,"dwell_s":170},"geometry":{"type":"Point","coordinates":[75.1384,32.90378]}},{"type":"Feature","properties":{"stop_id":260,"visits":36,"drivers":4,"dwell_s":77},"geometry":{"type":"Point","coordinates":[75.11572,32.56258]}},{"type":"Feature","properties":{"stop_id":144,"visits":35,"drivers":8,"dwell_s":55},"geometry":{"type":"Point","coordinates":[74.80359,34.06879]}},{"type":"Feature","properties":{"stop_id":179,"visits":35,"drivers":5,"dwell_s":85},"geometry":{"type":"Point","coordinates":[74.8015,34.14181]}},{"type":"Feature","properties":{"stop_id":126,"visits":35,"drivers":9,"dwell_s":50},"geometry":{"type":"Point","coordinates":[74.84383,34.06833]}},{"type":"Feature","properties":{"stop_id":323,"visits":34,"drivers":3,"dwell_s":124},"geometry":{"type":"Point","coordinates":[75.14293,32.93028]}},{"type":"Feature","properties":{"stop_id":58,"visits":34,"drivers":7,"dwell_s":50},"geometry":{"type":"Point","coordinates":[74.80713,34.09558]}},{"type":"Feature","properties":{"stop_id":62,"visits":34,"drivers":12,"dwell_s":60},"geometry":{"type":"Point","coordinates":[74.87033,34.04604]}},{"type":"Feature","properties":{"stop_id":93,"visits":34,"drivers":9,"dwell_s":48},"geometry":{"type":"Point","coordinates":[74.79979,34.07956]}},{"type":"Feature","properties":{"stop_id":254,"visits":34,"drivers":6,"dwell_s":57},"geometry":{"type":"Point","coordinates":[74.8491,32.69197]}},{"type":"Feature","properties":{"stop_id":117,"visits":34,"drivers":5,"dwell_s":162},"geometry":{"type":"Point","coordinates":[74.72282,34.01647]}},{"type":"Feature","properties":{"stop_id":70,"visits":33,"drivers":5,"dwell_s":65},"geometry":{"type":"Point","coordinates":[74.74552,34.10918]}},{"type":"Feature","properties":{"stop_id":242,"visits":32,"drivers":12,"dwell_s":61},"geometry":{"type":"Point","coordinates":[75.2788,33.04709]}},{"type":"Feature","properties":{"stop_id":308,"visits":31,"drivers":3,"dwell_s":150},"geometry":{"type":"Point","coordinates":[75.3182,33.12323]}},{"type":"Feature","properties":{"stop_id":90,"visits":30,"drivers":8,"dwell_s":63},"geometry":{"type":"Point","coordinates":[74.7945,34.12283]}},{"type":"Feature","properties":{"stop_id":27,"visits":29,"drivers":7,"dwell_s":49},"geometry":{"type":"Point","coordinates":[74.88628,34.03912]}},{"type":"Feature","properties":{"stop_id":329,"visits":28,"drivers":3,"dwell_s":72},"geometry":{"type":"Point","coordinates":[75.14354,33.07896]}},{"type":"Feature","properties":{"stop_id":82,"visits":28,"drivers":8,"dwell_s":65},"geometry":{"type":"Point","coordinates":[74.78136,34.0939]}},{"type":"Feature","properties":{"stop_id":147,"visits":27,"drivers":5,"dwell_s":55},"geometry":{"type":"Point","coordinates":[74.91781,34.01904]}},{"type":"Feature","properties":{"stop_id":130,"visits":27,"drivers":14,"dwell_s":46},"geometry":{"type":"Point","coordinates":[74.82151,34.0704]}},{"type":"Feature","properties":{"stop_id":249,"visits":27,"drivers":13,"dwell_s":65},"geometry":{"type":"Point","coordinates":[75.27829,33.04611]}},{"type":"Feature","properties":{"stop_id":20,"visits":27,"drivers":8,"dwell_s":50},"geometry":{"type":"Point","coordinates":[74.83895,34.12911]}},{"type":"Feature","properties":{"stop_id":64,"visits":26,"drivers":9,"dwell_s":65},"geometry":{"type":"Point","coordinates":[74.86314,34.05122]}},{"type":"Feature","properties":{"stop_id":52,"visits":26,"drivers":6,"dwell_s":183},"geometry":{"type":"Point","coordinates":[74.79594,34.12539]}},{"type":"Feature","properties":{"stop_id":123,"visits":25,"drivers":6,"dwell_s":50},"geometry":{"type":"Point","coordinates":[74.81272,34.0728]}},{"type":"Feature","properties":{"stop_id":159,"visits":25,"drivers":3,"dwell_s":60},"geometry":{"type":"Point","coordinates":[74.83477,34.10845]}},{"type":"Feature","properties":{"stop_id":244,"visits":25,"drivers":5,"dwell_s":77},"geometry":{"type":"Point","coordinates":[75.13734,32.90442]}},{"type":"Feature","properties":{"stop_id":157,"visits":24,"drivers":11,"dwell_s":67},"geometry":{"type":"Point","coordinates":[74.82376,34.07]}},{"type":"Feature","properties":{"stop_id":119,"visits":24,"drivers":4,"dwell_s":55},"geometry":{"type":"Point","coordinates":[74.77029,34.02146]}},{"type":"Feature","properties":{"stop_id":227,"visits":24,"drivers":9,"dwell_s":50},"geometry":{"type":"Point","coordinates":[75.10536,32.91524]}},{"type":"Feature","properties":{"stop_id":233,"visits":23,"drivers":4,"dwell_s":190},"geometry":{"type":"Point","coordinates":[75.11877,32.91813]}},{"type":"Feature","properties":{"stop_id":152,"visits":23,"drivers":5,"dwell_s":168},"geometry":{"type":"Point","coordinates":[74.91228,34.01585]}},{"type":"Feature","properties":{"stop_id":201,"visits":23,"drivers":6,"dwell_s":65},"geometry":{"type":"Point","coordinates":[74.81728,34.08794]}},{"type":"Feature","properties":{"stop_id":3,"visits":23,"drivers":10,"dwell_s":55},"geometry":{"type":"Point","coordinates":[74.7842,34.08168]}},{"type":"Feature","properties":{"stop_id":310,"visits":23,"drivers":4,"dwell_s":85},"geometry":{"type":"Point","coordinates":[75.55735,33.13758]}},{"type":"Feature","properties":{"stop_id":46,"visits":23,"drivers":6,"dwell_s":50},"geometry":{"type":"Point","coordinates":[74.79452,34.10983]}},{"type":"Feature","properties":{"stop_id":332,"visits":23,"drivers":3,"dwell_s":75},"geometry":{"type":"Point","coordinates":[75.17719,33.11333]}},{"type":"Feature","properties":{"stop_id":252,"visits":23,"drivers":6,"dwell_s":112},"geometry":{"type":"Point","coordinates":[75.24008,33.23804]}},{"type":"Feature","properties":{"stop_id":250,"visits":23,"drivers":11,"dwell_s":85},"geometry":{"type":"Point","coordinates":[75.04679,32.89709]}},{"type":"Feature","properties":{"stop_id":247,"visits":22,"drivers":6,"dwell_s":207},"geometry":{"type":"Point","coordinates":[75.24214,33.23614]}},{"type":"Feature","properties":{"stop_id":146,"visits":22,"drivers":3,"dwell_s":406},"geometry":{"type":"Point","coordinates":[74.91896,33.99733]}},{"type":"Feature","properties":{"stop_id":151,"visits":22,"drivers":9,"dwell_s":49},"geometry":{"type":"Point","coordinates":[74.84207,34.06984]}},{"type":"Feature","properties":{"stop_id":101,"visits":22,"drivers":3,"dwell_s":175},"geometry":{"type":"Point","coordinates":[74.77375,34.09611]}},{"type":"Feature","properties":{"stop_id":92,"visits":22,"drivers":5,"dwell_s":55},"geometry":{"type":"Point","coordinates":[74.79871,34.08132]}},{"type":"Feature","properties":{"stop_id":100,"visits":22,"drivers":8,"dwell_s":48},"geometry":{"type":"Point","coordinates":[74.79297,34.09015]}},{"type":"Feature","properties":{"stop_id":102,"visits":22,"drivers":6,"dwell_s":90},"geometry":{"type":"Point","coordinates":[74.79149,34.09374]}},{"type":"Feature","properties":{"stop_id":285,"visits":21,"drivers":4,"dwell_s":65},"geometry":{"type":"Point","coordinates":[75.15658,33.06484]}},{"type":"Feature","properties":{"stop_id":217,"visits":21,"drivers":3,"dwell_s":124},"geometry":{"type":"Point","coordinates":[74.8203,34.07775]}},{"type":"Feature","properties":{"stop_id":237,"visits":20,"drivers":6,"dwell_s":92},"geometry":{"type":"Point","coordinates":[74.886,32.70986]}},{"type":"Feature","properties":{"stop_id":60,"visits":20,"drivers":6,"dwell_s":44},"geometry":{"type":"Point","coordinates":[74.83467,34.0732]}},{"type":"Feature","properties":{"stop_id":35,"visits":19,"drivers":3,"dwell_s":272},"geometry":{"type":"Point","coordinates":[74.91482,34.03261]}},{"type":"Feature","properties":{"stop_id":155,"visits":19,"drivers":5,"dwell_s":50},"geometry":{"type":"Point","coordinates":[74.89941,34.03502]}},{"type":"Feature","properties":{"stop_id":290,"visits":19,"drivers":4,"dwell_s":135},"geometry":{"type":"Point","coordinates":[75.1434,32.93121]}},{"type":"Feature","properties":{"stop_id":4,"visits":19,"drivers":3,"dwell_s":75},"geometry":{"type":"Point","coordinates":[74.76746,34.0719]}},{"type":"Feature","properties":{"stop_id":79,"visits":18,"drivers":5,"dwell_s":50},"geometry":{"type":"Point","coordinates":[74.83644,34.15029]}},{"type":"Feature","properties":{"stop_id":114,"visits":18,"drivers":8,"dwell_s":47},"geometry":{"type":"Point","coordinates":[74.83746,34.12517]}},{"type":"Feature","properties":{"stop_id":120,"visits":18,"drivers":6,"dwell_s":55},"geometry":{"type":"Point","coordinates":[74.84976,34.06273]}},{"type":"Feature","properties":{"stop_id":113,"visits":18,"drivers":10,"dwell_s":45},"geometry":{"type":"Point","coordinates":[74.81273,34.06767]}},{"type":"Feature","properties":{"stop_id":200,"visits":17,"drivers":4,"dwell_s":55},"geometry":{"type":"Point","coordinates":[74.82454,34.13381]}},{"type":"Feature","properties":{"stop_id":192,"visits":17,"drivers":5,"dwell_s":45},"geometry":{"type":"Point","coordinates":[74.81499,34.09036]}},{"type":"Feature","properties":{"stop_id":57,"visits":17,"drivers":4,"dwell_s":65},"geometry":{"type":"Point","coordinates":[74.81063,34.09443]}},{"type":"Feature","properties":{"stop_id":245,"visits":17,"drivers":6,"dwell_s":59},"geometry":{"type":"Point","coordinates":[75.13862,32.90499]}},{"type":"Feature","properties":{"stop_id":103,"visits":17,"drivers":8,"dwell_s":70},"geometry":{"type":"Point","coordinates":[74.80063,34.13161]}},{"type":"Feature","properties":{"stop_id":283,"visits":17,"drivers":4,"dwell_s":55},"geometry":{"type":"Point","coordinates":[75.20297,33.10339]}},{"type":"Feature","properties":{"stop_id":169,"visits":16,"drivers":6,"dwell_s":47},"geometry":{"type":"Point","coordinates":[74.8081,34.1129]}},{"type":"Feature","properties":{"stop_id":337,"visits":16,"drivers":3,"dwell_s":67},"geometry":{"type":"Point","coordinates":[75.18565,33.09261]}},{"type":"Feature","properties":{"stop_id":229,"visits":16,"drivers":8,"dwell_s":57},"geometry":{"type":"Point","coordinates":[74.98217,32.94632]}},{"type":"Feature","properties":{"stop_id":256,"visits":16,"drivers":3,"dwell_s":67},"geometry":{"type":"Point","coordinates":[74.90635,32.64458]}},{"type":"Feature","properties":{"stop_id":163,"visits":15,"drivers":5,"dwell_s":50},"geometry":{"type":"Point","coordinates":[74.83871,34.14088]}},{"type":"Feature","properties":{"stop_id":189,"visits":15,"drivers":3,"dwell_s":70},"geometry":{"type":"Point","coordinates":[74.84156,34.03107]}},{"type":"Feature","properties":{"stop_id":112,"visits":15,"drivers":5,"dwell_s":60},"geometry":{"type":"Point","coordinates":[74.80543,34.06715]}},{"type":"Feature","properties":{"stop_id":264,"visits":15,"drivers":7,"dwell_s":124},"geometry":{"type":"Point","coordinates":[75.14193,32.93193]}},{"type":"Feature","properties":{"stop_id":12,"visits":14,"drivers":6,"dwell_s":52},"geometry":{"type":"Point","coordinates":[74.8331,34.10613]}},{"type":"Feature","properties":{"stop_id":330,"visits":14,"drivers":3,"dwell_s":70},"geometry":{"type":"Point","coordinates":[75.19184,33.08452]}},{"type":"Feature","properties":{"stop_id":31,"visits":14,"drivers":7,"dwell_s":50},"geometry":{"type":"Point","coordinates":[74.80558,34.06467]}},{"type":"Feature","properties":{"stop_id":282,"visits":14,"drivers":4,"dwell_s":99},"geometry":{"type":"Point","coordinates":[75.19014,33.44964]}},{"type":"Feature","properties":{"stop_id":202,"visits":14,"drivers":4,"dwell_s":47},"geometry":{"type":"Point","coordinates":[74.80654,34.13666]}},{"type":"Feature","properties":{"stop_id":162,"visits":14,"drivers":3,"dwell_s":130},"geometry":{"type":"Point","coordinates":[74.84648,34.15989]}},{"type":"Feature","properties":{"stop_id":153,"visits":14,"drivers":6,"dwell_s":47},"geometry":{"type":"Point","coordinates":[74.83811,34.07207]}},{"type":"Feature","properties":{"stop_id":203,"visits":14,"drivers":4,"dwell_s":90},"geometry":{"type":"Point","coordinates":[74.80642,34.12434]}},{"type":"Feature","properties":{"stop_id":312,"visits":13,"drivers":3,"dwell_s":85},"geometry":{"type":"Point","coordinates":[75.51485,33.1385]}},{"type":"Feature","properties":{"stop_id":291,"visits":13,"drivers":3,"dwell_s":156},"geometry":{"type":"Point","coordinates":[74.82091,34.07706]}},{"type":"Feature","properties":{"stop_id":334,"visits":13,"drivers":3,"dwell_s":55},"geometry":{"type":"Point","coordinates":[75.15373,33.14395]}},{"type":"Feature","properties":{"stop_id":248,"visits":13,"drivers":6,"dwell_s":130},"geometry":{"type":"Point","coordinates":[75.04642,32.89777]}},{"type":"Feature","properties":{"stop_id":311,"visits":12,"drivers":4,"dwell_s":112},"geometry":{"type":"Point","coordinates":[75.55834,33.13962]}},{"type":"Feature","properties":{"stop_id":104,"visits":12,"drivers":6,"dwell_s":60},"geometry":{"type":"Point","coordinates":[74.7955,34.12497]}},{"type":"Feature","properties":{"stop_id":262,"visits":12,"drivers":5,"dwell_s":71},"geometry":{"type":"Point","coordinates":[75.14667,32.85334]}},{"type":"Feature","properties":{"stop_id":76,"visits":12,"drivers":6,"dwell_s":45},"geometry":{"type":"Point","coordinates":[74.77559,34.09389]}},{"type":"Feature","properties":{"stop_id":327,"visits":12,"drivers":4,"dwell_s":50},"geometry":{"type":"Point","coordinates":[75.11491,32.96525]}},{"type":"Feature","properties":{"stop_id":48,"visits":12,"drivers":5,"dwell_s":72},"geometry":{"type":"Point","coordinates":[74.79848,34.09587]}},{"type":"Feature","properties":{"stop_id":193,"visits":12,"drivers":4,"dwell_s":45},"geometry":{"type":"Point","coordinates":[74.81648,34.1341]}},{"type":"Feature","properties":{"stop_id":158,"visits":11,"drivers":3,"dwell_s":150},"geometry":{"type":"Point","coordinates":[74.83547,34.11936]}},{"type":"Feature","properties":{"stop_id":34,"visits":11,"drivers":3,"dwell_s":69},"geometry":{"type":"Point","coordinates":[74.91535,34.03438]}},{"type":"Feature","properties":{"stop_id":91,"visits":11,"drivers":4,"dwell_s":55},"geometry":{"type":"Point","coordinates":[74.79494,34.11603]}},{"type":"Feature","properties":{"stop_id":235,"visits":11,"drivers":4,"dwell_s":50},"geometry":{"type":"Point","coordinates":[75.11538,32.96724]}},{"type":"Feature","properties":{"stop_id":74,"visits":11,"drivers":5,"dwell_s":60},"geometry":{"type":"Point","coordinates":[74.77898,34.08891]}},{"type":"Feature","properties":{"stop_id":99,"visits":11,"drivers":3,"dwell_s":205},"geometry":{"type":"Point","coordinates":[74.80068,34.08103]}},{"type":"Feature","properties":{"stop_id":171,"visits":11,"drivers":4,"dwell_s":105},"geometry":{"type":"Point","coordinates":[74.80609,34.16935]}},{"type":"Feature","properties":{"stop_id":188,"visits":10,"drivers":4,"dwell_s":162},"geometry":{"type":"Point","coordinates":[74.80089,34.1392]}},{"type":"Feature","properties":{"stop_id":154,"visits":10,"drivers":6,"dwell_s":48},"geometry":{"type":"Point","coordinates":[74.91695,34.02304]}},{"type":"Feature","properties":{"stop_id":186,"visits":10,"drivers":3,"dwell_s":70},"geometry":{"type":"Point","coordinates":[74.81737,34.14925]}},{"type":"Feature","properties":{"stop_id":166,"visits":10,"drivers":4,"dwell_s":122},"geometry":{"type":"Point","coordinates":[74.91482,34.00366]}},{"type":"Feature","properties":{"stop_id":207,"visits":10,"drivers":4,"dwell_s":60},"geometry":{"type":"Point","coordinates":[74.80957,34.13362]}},{"type":"Feature","properties":{"stop_id":309,"visits":10,"drivers":4,"dwell_s":78},"geometry":{"type":"Point","coordinates":[75.37049,33.13226]}},{"type":"Feature","properties":{"stop_id":314,"visits":10,"drivers":3,"dwell_s":140},"geometry":{"type":"Point","coordinates":[75.37247,33.12712]}},{"type":"Feature","properties":{"stop_id":29,"visits":10,"drivers":6,"dwell_s":45},"geometry":{"type":"Point","coordinates":[74.91237,34.02539]}},{"type":"Feature","properties":{"stop_id":63,"visits":10,"drivers":6,"dwell_s":45},"geometry":{"type":"Point","coordinates":[74.8063,34.0984]}},{"type":"Feature","properties":{"stop_id":81,"visits":10,"drivers":3,"dwell_s":52},"geometry":{"type":"Point","coordinates":[74.78376,34.09626]}},{"type":"Feature","properties":{"stop_id":270,"visits":10,"drivers":4,"dwell_s":149},"geometry":{"type":"Point","coordinates":[75.3016,33.18885]}},{"type":"Feature","properties":{"stop_id":287,"visits":10,"drivers":4,"dwell_s":95},"geometry":{"type":"Point","coordinates":[75.13782,32.9289]}},{"type":"Feature","properties":{"stop_id":219,"visits":10,"drivers":4,"dwell_s":47},"geometry":{"type":"Point","coordinates":[74.80899,34.10248]}},{"type":"Feature","properties":{"stop_id":231,"visits":10,"drivers":4,"dwell_s":160},"geometry":{"type":"Point","coordinates":[75.24272,32.90608]}},{"type":"Feature","properties":{"stop_id":271,"visits":10,"drivers":6,"dwell_s":47},"geometry":{"type":"Point","coordinates":[74.86065,32.74341]}}]}