{"type":"FeatureCollection","features":[{"type":"Feature","properties":{"stop_id":"T2-1","tier":2,"visits":9,"drivers":3,"dwell_s":45.0,"district":"Srinagar"},"geometry":{"type":"Point","coordinates":[74.77522,34.07578]}},{"type":"Feature","properties":{"stop_id":"T2-2","tier":2,"visits":5,"drivers":2,"dwell_s":60.0,"district":"Budgam"},"geometry":{"type":"Point","coordinates":[74.73204,34.04495]}},{"type":"Feature","properties":{"stop_id":"T2-3","tier":2,"visits":13,"drivers":7,"dwell_s":50.0,"district":"Srinagar"},"geometry":{"type":"Point","coordinates":[74.82928,34.10446]}},{"type":"Feature","properties":{"stop_id":"T2-4","tier":2,"visits":4,"drivers":3,"dwell_s":47.5,"district":"Srinagar"},"geometry":{"type":"Point","coordinates":[74.79474,34.09508]}},{"type":"Feature","properties":{"stop_id":"T2-5","tier":2,"visits":5,"drivers":2,"dwell_s":221.0,"district":"Ganderbal"},"geometry":{"type":"Point","coordinates":[75.19667,34.29456]}},{"type":"Feature","properties":{"stop_id":"T2-6","tier":2,"visits":5,"drivers":3,"dwell_s":50.0,"district":"Anantnag"},"geometry":{"type":"Point","coordinates":[75.31834,33.97863]}},{"type":"Feature","properties":{"stop_id":"T2-7","tier":2,"visits":9,"drivers":2,"dwell_s":55.0,"district":"Anantnag"},"geometry":{"type":"Point","coordinates":[75.31796,34.01045]}},{"type":"Feature","properties":{"stop_id":"T2-8","tier":2,"visits":4,"drivers":2,"dwell_s":72.5,"district":"Anantnag"},"geometry":{"type":"Point","coordinates":[75.31817,34.01693]}},{"type":"Feature","properties":{"stop_id":"T2-9","tier":2,"visits":4,"drivers":3,"dwell_s":242.5,"district":"Anantnag"},"geometry":{"type":"Point","coordinates":[75.35631,34.05298]}},{"type":"Feature","properties":{"stop_id":"T2-10","tier":2,"visits":12,"drivers":4,"dwell_s":62.5,"district":"Anantnag"},"geometry":{"type":"Point","coordinates":[75.27708,33.86323]}},{"type":"Feature","properties":{"stop_id":"T2-11","tier":2,"visits":4,"drivers":2,"dwell_s":452.5,"district":"Anantnag"},"geometry":{"type":"Point","coordinates":[75.27722,33.86216]}},{"type":"Feature","properties":{"stop_id":"T2-12","tier":2,"visits":4,"drivers":2,"dwell_s":172.0,"district":"Srinagar"},"geometry":{"type":"Point","coordinates":[74.87858,34.12415]}},{"type":"Feature","properties":{"stop_id":"T2-13","tier":2,"visits":4,"drivers":2,"dwell_s":155.5,"district":"Srinagar"},"geometry":{"type":"Point","coordinates":[74.87855,34.12474]}},{"type":"Feature","properties":{"stop_id":"T2-14","tier":2,"visits":4,"drivers":3,"dwell_s":54.0,"district":"Srinagar"},"geometry":{"type":"Point","coordinates":[74.84119,34.08745]}},{"type":"Feature","properties":{"stop_id":"T2-15","tier":2,"visits":4,"drivers":3,"dwell_s":82.5,"district":"Srinagar"},"geometry":{"type":"Point","coordinates":[74.83592,34.08383]}},{"type":"Feature","properties":{"stop_id":"T2-16","tier":2,"visits":6,"drivers":2,"dwell_s":102.5,"district":"Ganderbal"},"geometry":{"type":"Point","coordinates":[75.27515,34.30772]}},{"type":"Feature","properties":{"stop_id":"T2-17","tier":2,"visits":4,"drivers":4,"dwell_s":52.5,"district":"Srinagar"},"geometry":{"type":"Point","coordinates":[74.81903,34.12893]}},{"type":"Feature","properties":{"stop_id":"T2-18","tier":2,"visits":4,"drivers":2,"dwell_s":90.0,"district":"Srinagar"},"geometry":{"type":"Point","coordinates":[74.79947,34.06791]}},{"type":"Feature","properties":{"stop_id":"T2-19","tier":2,"visits":4,"drivers":2,"dwell_s":51.0,"district":"Srinagar"},"geometry":{"type":"Point","coordinates":[74.78883,34.089]}},{"type":"Feature","properties":{"stop_id":"T2-20","tier":2,"visits":7,"drivers":2,"dwell_s":70.0,"district":"Srinagar"},"geometry":{"type":"Point","coordinates":[74.77436,34.08389]}},{"type":"Feature","properties":{"stop_id":"T2-21","tier":2,"visits":4,"drivers":2,"dwell_s":98.5,"district":"Srinagar"},"geometry":{"type":"Point","coordinates":[74.81747,34.09909]}},{"type":"Feature","properties":{"stop_id":"T2-22","tier":2,"visits":4,"drivers":3,"dwell_s":47.5,"district":"Srinagar"},"geometry":{"type":"Point","coordinates":[74.77629,34.07638]}},{"type":"Feature","properties":{"stop_id":"T2-23","tier":2,"visits":6,"drivers":4,"dwell_s":47.5,"district":"Srinagar"},"geometry":{"type":"Point","coordinates":[74.8265,34.10432]}},{"type":"Feature","properties":{"stop_id":"T2-24","tier":2,"visits":10,"drivers":2,"dwell_s":174.0,"district":"Srinagar"},"geometry":{"type":"Point","coordinates":[74.83108,34.10066]}},{"type":"Feature","properties":{"stop_id":"T2-25","tier":2,"visits":7,"drivers":4,"dwell_s":65.0,"district":"Srinagar"},"geometry":{"type":"Point","coordinates":[74.8022,34.04519]}},{"type":"Feature","properties":{"stop_id":"T2-26","tier":2,"visits":4,"drivers":4,"dwell_s":45.0,"district":"Srinagar"},"geometry":{"type":"Point","coordinates":[74.8356,34.12167]}},{"type":"Feature","properties":{"stop_id":"T2-27","tier":2,"visits":5,"drivers":3,"dwell_s":60.0,"district":"Srinagar"},"geometry":{"type":"Point","coordinates":[74.8369,34.11107]}},{"type":"Feature","properties":{"stop_id":"T2-28","tier":2,"visits":5,"drivers":3,"dwell_s":60.0,"district":"Pulwama"},"geometry":{"type":"Point","coordinates":[74.92377,34.00805]}},{"type":"Feature","properties":{"stop_id":"T2-29","tier":2,"visits":4,"drivers":3,"dwell_s":45.0,"district":"Pulwama"},"geometry":{"type":"Point","coordinates":[74.90873,34.01114]}},{"type":"Feature","properties":{"stop_id":"T2-30","tier":2,"visits":4,"drivers":2,"dwell_s":73.5,"district":"Pulwama"},"geometry":{"type":"Point","coordinates":[74.99563,33.99886]}},{"type":"Feature","properties":{"stop_id":"T2-31","tier":2,"visits":4,"drivers":4,"dwell_s":47.5,"district":"Srinagar"},"geometry":{"type":"Point","coordinates":[74.8323,34.02869]}},{"type":"Feature","properties":{"stop_id":"T2-32","tier":2,"visits":4,"drivers":2,"dwell_s":49.0,"district":"Pulwama"},"geometry":{"type":"Point","coordinates":[74.9667,34.02553]}},{"type":"Feature","properties":{"stop_id":"T2-33","tier":2,"visits":9,"drivers":5,"dwell_s":57.0,"district":"Srinagar"},"geometry":{"type":"Point","coordinates":[74.8559,34.05848]}},{"type":"Feature","properties":{"stop_id":"T2-34","tier":2,"visits":8,"drivers":3,"dwell_s":72.5,"district":"Pulwama"},"geometry":{"type":"Point","coordinates":[75.04339,33.8743]}},{"type":"Feature","properties":{"stop_id":"T2-35","tier":2,"visits":4,"drivers":2,"dwell_s":252.5,"district":"Srinagar"},"geometry":{"type":"Point","coordinates":[74.87001,34.14911]}},{"type":"Feature","properties":{"stop_id":"T2-36","tier":2,"visits":9,"drivers":4,"dwell_s":65.0,"district":"Pulwama"},"geometry":{"type":"Point","coordinates":[74.91455,34.01907]}},{"type":"Feature","properties":{"stop_id":"T2-37","tier":2,"visits":4,"drivers":2,"dwell_s":58.0,"district":"Srinagar"},"geometry":{"type":"Point","coordinates":[74.85344,34.16517]}},{"type":"Feature","properties":{"stop_id":"T2-38","tier":2,"visits":5,"drivers":2,"dwell_s":65.0,"district":"Srinagar"},"geometry":{"type":"Point","coordinates":[74.87118,34.15016]}},{"type":"Feature","properties":{"stop_id":"T2-39","tier":2,"visits":5,"drivers":2,"dwell_s":120.0,"district":"Srinagar"},"geometry":{"type":"Point","coordinates":[74.80002,34.13658]}},{"type":"Feature","properties":{"stop_id":"T2-40","tier":2,"visits":4,"drivers":2,"dwell_s":291.0,"district":"Pulwama"},"geometry":{"type":"Point","coordinates":[74.96704,33.99672]}},{"type":"Feature","properties":{"stop_id":"T2-41","tier":2,"visits":4,"drivers":3,"dwell_s":72.5,"district":"Srinagar"},"geometry":{"type":"Point","coordinates":[74.80259,34.15807]}},{"type":"Feature","properties":{"stop_id":"T2-42","tier":2,"visits":4,"drivers":2,"dwell_s":112.5,"district":"Anantnag"},"geometry":{"type":"Point","coordinates":[75.31354,34.01849]}},{"type":"Feature","properties":{"stop_id":"T2-43","tier":2,"visits":6,"drivers":3,"dwell_s":105.0,"district":"Srinagar"},"geometry":{"type":"Point","coordinates":[74.79945,34.10521]}},{"type":"Feature","properties":{"stop_id":"T2-44","tier":2,"visits":9,"drivers":3,"dwell_s":40.0,"district":"Srinagar"},"geometry":{"type":"Point","coordinates":[74.85395,34.03397]}},{"type":"Feature","properties":{"stop_id":"T2-45","tier":2,"visits":5,"drivers":4,"dwell_s":45.0,"district":"Srinagar"},"geometry":{"type":"Point","coordinates":[74.8168,34.06991]}},{"type":"Feature","properties":{"stop_id":"T2-46","tier":2,"visits":5,"drivers":3,"dwell_s":55.0,"district":"Srinagar"},"geometry":{"type":"Point","coordinates":[74.8039,34.15632]}},{"type":"Feature","properties":{"stop_id":"T2-47","tier":2,"visits":6,"drivers":4,"dwell_s":57.5,"district":"Srinagar"},"geometry":{"type":"Point","coordinates":[74.81249,34.13454]}},{"type":"Feature","properties":{"stop_id":"T2-48","tier":2,"visits":4,"drivers":2,"dwell_s":50.0,"district":"Srinagar"},"geometry":{"type":"Point","coordinates":[74.85579,34.03442]}},{"type":"Feature","properties":{"stop_id":"T2-49","tier":2,"visits":7,"drivers":2,"dwell_s":60.0,"district":"Srinagar"},"geometry":{"type":"Point","coordinates":[74.83101,34.14268]}},{"type":"Feature","properties":{"stop_id":"T2-50","tier":2,"visits":6,"drivers":4,"dwell_s":50.0,"district":"Srinagar"},"geometry":{"type":"Point","coordinates":[74.82106,34.14778]}},{"type":"Feature","properties":{"stop_id":"T2-51","tier":2,"visits":4,"drivers":2,"dwell_s":47.5,"district":"Srinagar"},"geometry":{"type":"Point","coordinates":[74.85529,34.03427]}},{"type":"Feature","properties":{"stop_id":"T2-52","tier":2,"visits":8,"drivers":4,"dwell_s":212.5,"district":"Srinagar"},"geometry":{"type":"Point","coordinates":[74.80378,34.15743]}},{"type":"Feature","properties":{"stop_id":"T2-53","tier":2,"visits":5,"drivers":3,"dwell_s":60.0,"district":"Srinagar"},"geometry":{"type":"Point","coordinates":[74.87926,34.12292]}},{"type":"Feature","properties":{"stop_id":"T2-54","tier":2,"visits":7,"drivers":2,"dwell_s":85.0,"district":"Srinagar"},"geometry":{"type":"Point","coordinates":[74.81185,34.15159]}},{"type":"Feature","properties":{"stop_id":"T2-55","tier":2,"visits":4,"drivers":2,"dwell_s":232.5,"district":"Srinagar"},"geometry":{"type":"Point","coordinates":[74.86041,34.14361]}},{"type":"Feature","properties":{"stop_id":"T2-56","tier":2,"visits":6,"drivers":2,"dwell_s":132.5,"district":"Srinagar"},"geometry":{"type":"Point","coordinates":[74.86997,34.14808]}},{"type":"Feature","properties":{"stop_id":"T2-57","tier":2,"visits":5,"drivers":3,"dwell_s":50.0,"district":"Srinagar"},"geometry":{"type":"Point","coordinates":[74.81821,34.12786]}},{"type":"Feature","properties":{"stop_id":"T2-58","tier":2,"visits":4,"drivers":3,"dwell_s":60.0,"district":"Srinagar"},"geometry":{"type":"Point","coordinates":[74.80198,34.14408]}},{"type":"Feature","properties":{"stop_id":"T2-59","tier":2,"visits":6,"drivers":3,"dwell_s":80.0,"district":"Srinagar"},"geometry":{"type":"Point","coordinates":[74.80254,34.14854]}},{"type":"Feature","properties":{"stop_id":"T2-60","tier":2,"visits":7,"drivers":2,"dwell_s":99.0,"district":"Ganderbal"},"geometry":{"type":"Point","coordinates":[75.29424,34.30124]}},{"type":"Feature","properties":{"stop_id":"T2-61","tier":2,"visits":4,"drivers":3,"dwell_s":82.0,"district":"Srinagar"},"geometry":{"type":"Point","coordinates":[74.80205,34.15891]}},{"type":"Feature","properties":{"stop_id":"T2-62","tier":2,"visits":4,"drivers":2,"dwell_s":50.0,"district":"Srinagar"},"geometry":{"type":"Point","coordinates":[74.80253,34.04971]}},{"type":"Feature","properties":{"stop_id":"T2-63","tier":2,"visits":4,"drivers":2,"dwell_s":91.5,"district":"Srinagar"},"geometry":{"type":"Point","coordinates":[74.76261,34.08573]}},{"type":"Feature","properties":{"stop_id":"T2-64","tier":2,"visits":8,"drivers":2,"dwell_s":132.5,"district":"Srinagar"},"geometry":{"type":"Point","coordinates":[74.76372,34.10037]}}]}